1 57371U 23099AV  25358.15079832 -.00000064  00000+0  10332-4 0  9997
2 57371  43.0044 286.3931 0000912 260.4405  99.6334 15.02532807134909
